[
    {
        "Altitude(m)": 604221.1946183878,
        "Argument of Periapsis(deg)": 0.0,
        "Eccentricity": 0.0,
        "Inclination(deg)": 60.0,
        "Latitude(deg)": 14.117190487908385,
        "Longitude(deg)": -51.665865061855946,
        "Mean Anomaly(deg)": 16.363600000000005,
        "RAAN(deg)": 40.0,
        "Satellite Name": "Test1 177",
        "Satellite Number": 177,
        "Semi-Major Axis(m)": 6980739.136638005,
        "Time(s)": 0
    },
    {
        "Altitude(m)": 604235.3352649157,
        "Argument of Periapsis(deg)": 0.00010418945913296404,
        "Eccentricity": 0.0,
        "Inclination(deg)": 60.0,
        "Latitude(deg)": 14.651587637404665,
        "Longitude(deg)": -51.377418934953646,
        "Mean Anomaly(deg)": 16.98370614546183,
        "RAAN(deg)": 39.99957995086026,
        "Satellite Name": "Test1 177",
        "Satellite Number": 177,
        "Semi-Major Axis(m)": 6980739.136638005,
        "Time(s)": 10
    },
    {
        "Altitude(m)": 604252.373019344,
        "Argument of Periapsis(deg)": 0.0002083789182659281,
        "Eccentricity": 0.0,
        "Inclination(deg)": 60.0,
        "Latitude(deg)": 15.185494978278422,
        "Longitude(deg)": -51.08736981680329,
        "Mean Anomaly(deg)": 17.60381229092366,
        "RAAN(deg)": 39.99915990172052,
        "Satellite Name": "Test1 177",
        "Satellite Number": 177,
        "Semi-Major Axis(m)": 6980739.136638005,
        "Time(s)": 20
    },
    {
        "Altitude(m)": 604272.27605301,
        "Argument of Periapsis(deg)": 0.00031256837739889213,
        "Eccentricity": 0.0,
        "Inclination(deg)": 60.0,
        "Latitude(deg)": 15.71889120604211,
        "Longitude(deg)": -50.79565019543388,
        "Mean Anomaly(deg)": 18.22391843638549,
        "RAAN(deg)": 39.998739852580776,
        "Satellite Name": "Test1 177",
        "Satellite Number": 177,
        "Semi-Major Axis(m)": 6980739.136638005,
        "Time(s)": 30
    },
    {
        "Altitude(m)": 604295.0112625196,
        "Argument of Periapsis(deg)": 0.0004167578365318562,
        "Eccentricity": 0.0,
        "Inclination(deg)": 60.0,
        "Latitude(deg)": 16.25175468049484,
        "Longitude(deg)": -50.50219103626446,
        "Mean Anomaly(deg)": 18.84402458184733,
        "RAAN(deg)": 39.998319803441035,
        "Satellite Name": "Test1 177",
        "Satellite Number": 177,
        "Semi-Major Axis(m)": 6980739.136638005,
        "Time(s)": 40
    },
    {
        "Altitude(m)": 604320.5442886731,
        "Argument of Periapsis(deg)": 0.0005209472956648203,
        "Eccentricity": 0.0,
        "Inclination(deg)": 60.0,
        "Latitude(deg)": 16.784063409684993,
        "Longitude(deg)": -50.20692274652299,
        "Mean Anomaly(deg)": 19.46413072730915,
        "RAAN(deg)": 39.99789975430128,
        "Satellite Name": "Test1 177",
        "Satellite Number": 177,
        "Semi-Major Axis(m)": 6980739.136638005,
        "Time(s)": 50
    },
    {
        "Altitude(m)": 604348.8395359947,
        "Argument of Periapsis(deg)": 0.0006251367547977843,
        "Eccentricity": 0.0,
        "Inclination(deg)": 60.0,
        "Latitude(deg)": 17.31579503339136,
        "Longitude(deg)": -49.909774625938084,
        "Mean Anomaly(deg)": 20.08423687277099,
        "RAAN(deg)": 39.99747970516154,
        "Satellite Name": "Test1 177",
        "Satellite Number": 177,
        "Semi-Major Axis(m)": 6980739.136638005,
        "Time(s)": 60
    },
    {
        "Altitude(m)": 604379.8601928318,
        "Argument of Periapsis(deg)": 0.0007293262139307483,
        "Eccentricity": 0.0,
        "Inclination(deg)": 60.0,
        "Latitude(deg)": 17.846926806097894,
        "Longitude(deg)": -49.610674316551986,
        "Mean Anomaly(deg)": 20.704343018232816,
        "RAAN(deg)": 39.997059656021804,
        "Satellite Name": "Test1 177",
        "Satellite Number": 177,
        "Semi-Major Axis(m)": 6980739.136638005,
        "Time(s)": 70
    },
    {
        "Altitude(m)": 604413.5682520474,
        "Argument of Periapsis(deg)": 0.0008335156730637124,
        "Eccentricity": 0.0,
        "Inclination(deg)": 60.0,
        "Latitude(deg)": 18.377435579436646,
        "Longitude(deg)": -49.309548764502026,
        "Mean Anomaly(deg)": 21.324449163694645,
        "RAAN(deg)": 39.996639606882056,
        "Satellite Name": "Test1 177",
        "Satellite Number": 177,
        "Semi-Major Axis(m)": 6980739.136638005,
        "Time(s)": 80
    },
    {
        "Altitude(m)": 604449.9245322483,
        "Argument of Periapsis(deg)": 0.0009377051321966765,
        "Eccentricity": 0.0,
        "Inclination(deg)": 60.0,
        "Latitude(deg)": 18.90729778407714,
        "Longitude(deg)": -49.00632366800376,
        "Mean Anomaly(deg)": 21.944555309156474,
        "RAAN(deg)": 39.996219557742315,
        "Satellite Name": "Test1 177",
        "Satellite Number": 177,
        "Semi-Major Axis(m)": 6980739.136638005,
        "Time(s)": 90
    },
    {
        "Altitude(m)": 604488.8886996049,
        "Argument of Periapsis(deg)": 0.0010418945913296407,
        "Eccentricity": 0.0,
        "Inclination(deg)": 60.0,
        "Latitude(deg)": 19.436489411035133,
        "Longitude(deg)": -48.70092292438508,
        "Mean Anomaly(deg)": 22.564661454618314,
        "RAAN(deg)": 39.99579950860257,
        "Satellite Name": "Test1 177",
        "Satellite Number": 177,
        "Semi-Major Axis(m)": 6980739.136638005,
        "Time(s)": 100
    },
    {
        "Altitude(m)": 604530.4192901631,
        "Argument of Periapsis(deg)": 0.0011460840504626045,
        "Eccentricity": 0.0,
        "Inclination(deg)": 60.0,
        "Latitude(deg)": 19.964985992373013,
        "Longitude(deg)": -48.39326958902603,
        "Mean Anomaly(deg)": 23.18476760008014,
        "RAAN(deg)": 39.99537945946283,
        "Satellite Name": "Test1 177",
        "Satellite Number": 177,
        "Semi-Major Axis(m)": 6980739.136638005,
        "Time(s)": 110
    },
    {
        "Altitude(m)": 604574.4737327178,
        "Argument of Periapsis(deg)": 0.0012502735095955685,
        "Eccentricity": 0.0,
        "Inclination(deg)": 60.0,
        "Latitude(deg)": 20.49276258126795,
        "Longitude(deg)": -48.08328532043919,
        "Mean Anomaly(deg)": 23.80487374554197,
        "RAAN(deg)": 39.99495941032309,
        "Satellite Name": "Test1 177",
        "Satellite Number": 177,
        "Semi-Major Axis(m)": 6980739.136638005,
        "Time(s)": 120
    },
    {
        "Altitude(m)": 604621.0083722031,
        "Argument of Periapsis(deg)": 0.0013544629687285324,
        "Eccentricity": 0.0,
        "Inclination(deg)": 60.0,
        "Latitude(deg)": 21.01979373141803,
        "Longitude(deg)": -47.77088982434899,
        "Mean Anomaly(deg)": 24.424979891003794,
        "RAAN(deg)": 39.99453936118334,
        "Satellite Name": "Test1 177",
        "Satellite Number": 177,
        "Semi-Major Axis(m)": 6980739.136638005,
        "Time(s)": 130
    },
    {
        "Altitude(m)": 604669.978493543,
        "Argument of Periapsis(deg)": 0.0014586524278614966,
        "Eccentricity": 0.0,
        "Inclination(deg)": 60.0,
        "Latitude(deg)": 21.54605347575665,
        "Longitude(deg)": -47.456001809627814,
        "Mean Anomaly(deg)": 25.045086036465637,
        "RAAN(deg)": 39.9941193120436,
        "Satellite Name": "Test1 177",
        "Satellite Number": 177,
        "Semi-Major Axis(m)": 6980739.136638005,
        "Time(s)": 140
    },
    {
        "Altitude(m)": 604721.3383460453,
        "Argument of Periapsis(deg)": 0.0015628418869944607,
        "Eccentricity": 0.0,
        "Inclination(deg)": 60.0,
        "Latitude(deg)": 22.07151530444805,
        "Longitude(deg)": -47.138538430334165,
        "Mean Anomaly(deg)": 25.66519218192746,
        "RAAN(deg)": 39.99369926290386,
        "Satellite Name": "Test1 177",
        "Satellite Number": 177,
        "Semi-Major Axis(m)": 6980739.136638005,
        "Time(s)": 150
    },
    {
        "Altitude(m)": 604775.0411682252,
        "Argument of Periapsis(deg)": 0.0016670313461274247,
        "Eccentricity": 0.0,
        "Inclination(deg)": 60.0,
        "Latitude(deg)": 22.5961521421329,
        "Longitude(deg)": -46.81841472671739,
        "Mean Anomaly(deg)": 26.285298327389285,
        "RAAN(deg)": 39.99327921376412,
        "Satellite Name": "Test1 177",
        "Satellite Number": 177,
        "Semi-Major Axis(m)": 6980739.136638005,
        "Time(s)": 160
    },
    {
        "Altitude(m)": 604831.0392131327,
        "Argument of Periapsis(deg)": 0.0017712208052603888,
        "Eccentricity": 0.0,
        "Inclination(deg)": 60.0,
        "Latitude(deg)": 23.11993632439007,
        "Longitude(deg)": -46.49554457805781,
        "Mean Anomaly(deg)": 26.905404472851124,
        "RAAN(deg)": 39.99285916462437,
        "Satellite Name": "Test1 177",
        "Satellite Number": 177,
        "Semi-Major Axis(m)": 6980739.136638005,
        "Time(s)": 170
    },
    {
        "Altitude(m)": 604889.2837740787,
        "Argument of Periapsis(deg)": 0.001875410264393353,
        "Eccentricity": 0.0,
        "Inclination(deg)": 60.0,
        "Latitude(deg)": 23.642839573386418,
        "Longitude(deg)": -46.169840141597454,
        "Mean Anomaly(deg)": 27.525510618312953,
        "RAAN(deg)": 39.99243911548463,
        "Satellite Name": "Test1 177",
        "Satellite Number": 177,
        "Semi-Major Axis(m)": 6980739.136638005,
        "Time(s)": 180
    },
    {
        "Altitude(m)": 604949.7252108401,
        "Argument of Periapsis(deg)": 0.0019795997235263173,
        "Eccentricity": 0.0,
        "Inclination(deg)": 60.0,
        "Latitude(deg)": 24.164832972679783,
        "Longitude(deg)": -45.84121129043786,
        "Mean Anomaly(deg)": 28.14561676377478,
        "RAAN(deg)": 39.99201906634489,
        "Satellite Name": "Test1 177",
        "Satellite Number": 177,
        "Semi-Major Axis(m)": 6980739.136638005,
        "Time(s)": 190
    }
]